OBJECT_NAME,OBJECT_ID,EPOCH,MEAN_MOTION,ECCENTRICITY,INCLINATION,RA_OF_ASC_NODE,ARG_OF_PERICENTER,MEAN_ANOMALY,EPHEMERIS_TYPE,CLASSIFICATION_TYPE,NORAD_CAT_ID,ELEMENT_SET_NO,REV_AT_EPOCH,BSTAR,MEAN_MOTION_DOT,MEAN_MOTION_DDOT
STARLINK-5961,2023-083AQ,2026-06-19T13:37:25.191552,15.27572797,.0001488,43.0033,214.9334,287.8284,72.2405,0,U,56914,999,16738,.30025461E-4,.564E-5,0
STARLINK-5965,2023-083AR,2026-06-19T09:33:48.570048,15.27576189,.00015135,43.0011,216.2475,276.7366,83.3314,0,U,56915,999,16735,.33675304E-4,.664E-5,0
STARLINK-5973,2023-083AS,2026-06-19T09:31:54.475392,15.27558182,.00011775,43.0013,216.2307,276.4206,83.6512,0,U,56916,999,16732,.29817629E-3,.7947E-4,0
STARLINK-5971,2023-083AT,2026-06-19T09:59:42.865440,15.27578195,.00013248,43.0005,216.3785,268.9947,91.0752,0,U,56917,999,16735,.14353482E-4,.133E-5,0
STARLINK-5951,2023-083AU,2026-06-19T04:32:50.042976,15.27576470,.00016884,43.0023,217.2501,270.7598,89.3060,0,U,56918,999,16732,.14968415E-4,.15E-5,0
STARLINK-5966,2023-083AV,2026-06-19T13:42:59.191488,15.27591031,.00008131,42.9974,214.9609,45.9231,314.1688,0,U,56919,999,16738,-.50983565E-4,-.1665E-4,0
STARLINK-5960,2023-083AW,2026-06-19T09:26:24.560448,15.27567263,.00013421,43.0025,216.2005,264.0255,96.0444,0,U,56920,999,16735,.25647408E-4,.443E-5,0
STARLINK-5958,2023-083AX,2026-06-19T13:48:31.338144,15.27576321,.00017869,43.0037,214.9891,277.6718,82.3931,0,U,56921,999,16738,.26316107E-4,.462E-5,0
STARLINK-5937,2023-083AY,2026-06-19T10:08:57.846336,15.27575474,.00011609,43.0007,216.4200,269.8773,90.1946,0,U,56922,999,16735,.650815E-5,-.83E-6,0
STARLINK-5952,2023-083AZ,2026-06-19T04:38:23.564256,15.27563752,.00019346,43.0028,217.2790,278.3047,81.7586,0,U,56923,999,16732,.30085099E-4,.565E-5,0
STARLINK-5731,2023-083BA,2026-06-19T10:03:24.735456,15.27577891,.00012958,43.0013,216.3911,267.2985,92.7719,0,U,56924,999,16746,.6854895E-5,-.73E-6,0
STARLINK-5733,2023-083BB,2026-06-19T09:43:03.857664,15.27578031,.00016311,43.0005,216.2887,269.1684,90.8981,0,U,56925,999,16735,.30822263E-4,.586E-5,0
STARLINK-5746,2023-083BC,2026-06-19T03:20:53.142144,15.27577637,.00051168,43.0077,217.7419,291.7730,68.2577,0,U,56926,999,16731,.47741398E-4,.105E-4,0
STARLINK-5808,2023-083BD,2026-06-19T05:20:35.444544,15.27575341,.00012606,43.0015,126.3438,271.1494,88.9213,0,U,56927,999,16837,-.12046594E-4,-.593E-5,0
STARLINK-5850,2023-088B,2026-06-19T17:23:02.988960,15.27579976,.00009915,43.0003,254.7389,279.3511,80.7229,0,U,57049,999,16612,.56373827E-4,.129E-4,0
STARLINK-5845,2023-088C,2026-06-19T07:11:49.842816,15.27576642,.0002105,43.0034,256.7099,278.2506,81.8107,0,U,57050,999,16587,.23436041E-4,.382E-5,0
STARLINK-5839,2023-088D,2026-06-19T06:57:01.897056,15.27580331,.00014722,43.0027,256.6416,273.7638,86.3046,0,U,57051,999,16587,.29781281E-4,.557E-5,0
STARLINK-5860,2023-088E,2026-06-19T16:16:25.286880,15.27576876,.00014363,43.0038,254.4004,271.7050,88.3637,0,U,57052,999,16593,-.264735E-6,-.269E-5,0
STARLINK-5865,2023-088F,2026-06-19T12:22:04.226880,15.27573039,.00009153,43.0012,255.7496,252.6712,107.4040,0,U,57053,999,16590,-.2962141E-5,-.343E-5,0
STARLINK-5881,2023-088G,2026-06-19T16:20:06.937440,15.27579499,.00012935,43.0034,254.4139,284.9140,75.1568,0,U,57054,999,16593,.24270861E-4,.406E-5,0
STARLINK-6237,2023-088H,2026-06-19T16:27:30.874464,15.27581138,.0002143,43.0035,254.4534,309.4560,50.6102,0,U,57055,999,16593,.17933326E-4,.231E-5,0
STARLINK-6353,2023-088J,2026-06-19T16:14:33.990720,15.27578722,.00011169,43.0026,254.3866,273.9737,86.0987,0,U,57056,999,16593,.20166286E-4,.293E-5,0
STARLINK-6223,2023-088K,2026-06-19T16:23:48.969888,15.27573951,.00015352,43.0039,254.4091,281.4007,78.6672,0,U,57057,999,16593,.35172212E-4,.706E-5,0
STARLINK-6217,2023-088L,2026-06-19T16:09:00.750240,15.27579837,.00012797,43.0018,254.3598,274.8301,85.2404,0,U,57058,999,16593,.2334129E-4,.38E-5,0
STARLINK-6211,2023-088M,2026-06-19T13:02:33.238464,15.27577422,.0001304,43.0023,255.0941,274.7804,85.2899,0,U,57059,999,16591,.1844298E-5,-.211E-5,0
STARLINK-6227,2023-088N,2026-06-19T12:51:39.613824,15.27576905,.00012277,43.0013,255.8910,270.1267,89.9444,0,U,57060,999,16590,.8656372E-5,-.24E-6,0
STARLINK-5869,2023-088P,2026-06-19T07:07:26.418720,15.27574463,.00019715,43.0042,260.0900,273.2545,86.8082,0,U,57061,999,16485,.13238524E-3,.3382E-4,0
STARLINK-5536,2023-088Q,2026-06-19T06:11:42.380160,15.27580623,.00019352,43.0045,242.5256,289.4602,70.6041,0,U,57062,999,16603,.10479106E-4,.26E-6,0
STARLINK-5832,2023-088R,2026-06-19T12:03:35.208576,15.27558483,.0002354,43.0042,255.6452,282.9017,77.1571,0,U,57063,999,16590,-.62802058E-4,-.1989E-4,0
STARLINK-5822,2023-088S,2026-06-19T16:33:03.989664,15.27581007,.00025377,43.0035,254.4699,290.3751,69.6828,0,U,57064,999,16495,.19101279E-4,.263E-5,0
