STARLINK-5961           
1 56914U 23083AQ  26170.56765268  .00000564  00000+0  30025-4 0  9990
2 56914  43.0033 214.9334 0001488 287.8284  72.2405 15.27572797167383
STARLINK-5965           
1 56915U 23083AR  26170.39847882  .00000664  00000+0  33675-4 0  9990
2 56915  43.0011 216.2475 0001513 276.7366  83.3314 15.27576189167356
STARLINK-5973           
1 56916U 23083AS  26170.39715828  .00007947  00000+0  29818-3 0  9999
2 56916  43.0013 216.2307 0001177 276.4206  83.6512 15.27558182167322
STARLINK-5971           
1 56917U 23083AT  26170.41646835  .00000133  00000+0  14353-4 0  9993
2 56917  43.0005 216.3785 0001324 268.9947  91.0752 15.27578195167355
STARLINK-5951           
1 56918U 23083AU  26170.18946809  .00000150  00000+0  14968-4 0  9993
2 56918  43.0023 217.2501 0001688 270.7598  89.3060 15.27576470167321
STARLINK-5966           
1 56919U 23083AV  26170.57151842 -.00001665  00000+0 -50984-4 0  9994
2 56919  42.9974 214.9609 0000813  45.9231 314.1688 15.27591031167384
STARLINK-5960           
1 56920U 23083AW  26170.39333982  .00000443  00000+0  25647-4 0  9992
2 56920  43.0025 216.2005 0001342 264.0255  96.0444 15.27567263167351
STARLINK-5958           
1 56921U 23083AX  26170.57536271  .00000462  00000+0  26316-4 0  9994
2 56921  43.0037 214.9891 0001786 277.6718  82.3931 15.27576321167386
STARLINK-5937           
1 56922U 23083AY  26170.42289174 -.00000083  00000+0  65081-5 0  9999
2 56922  43.0007 216.4200 0001160 269.8773  90.1946 15.27575474167353
STARLINK-5952           
1 56923U 23083AZ  26170.19332829  .00000565  00000+0  30085-4 0  9999
2 56923  43.0028 217.2790 0001934 278.3047  81.7586 15.27563752167327
STARLINK-5731           
1 56924U 23083BA  26170.41903629 -.00000073  00000+0  68549-5 0  9999
2 56924  43.0013 216.3911 0001295 267.2985  92.7719 15.27577891167469
STARLINK-5733           
1 56925U 23083BB  26170.40490576  .00000586  00000+0  30822-4 0  9991
2 56925  43.0005 216.2887 0001631 269.1684  90.8981 15.27578031167358
STARLINK-5746           
1 56926U 23083BC  26170.13950396  .00001050  00000+0  47741-4 0  9998
2 56926  43.0077 217.7419 0005116 291.7730  68.2577 15.27577637167317
STARLINK-5808           
1 56927U 23083BD  26170.22263246 -.00000593  00000+0 -12047-4 0  9994
2 56927  43.0015 126.3438 0001260 271.1494  88.9213 15.27575341168374
STARLINK-5850           
1 57049U 23088B   26170.72434015  .00001290  00000+0  56374-4 0  9998
2 57049  43.0003 254.7389 0000991 279.3511  80.7229 15.27579976166124
STARLINK-5845           
1 57050U 23088C   26170.29988244  .00000382  00000+0  23436-4 0  9994
2 57050  43.0034 256.7099 0002105 278.2506  81.8107 15.27576642165876
STARLINK-5839           
1 57051U 23088D   26170.28960529  .00000557  00000+0  29781-4 0  9993
2 57051  43.0027 256.6416 0001472 273.7638  86.3046 15.27580331165875
STARLINK-5860           
1 57052U 23088E   26170.67807045 -.00000269  00000+0 -26474-6 0  9990
2 57052  43.0038 254.4004 0001436 271.7050  88.3637 15.27576876165937
STARLINK-5865           
1 57053U 23088F   26170.51532670 -.00000343  00000+0 -29621-5 0  9992
2 57053  43.0012 255.7496 0000915 252.6712 107.4040 15.27573039165909
STARLINK-5881           
1 57054U 23088G   26170.68063585  .00000406  00000+0  24271-4 0  9998
2 57054  43.0034 254.4139 0001293 284.9140  75.1568 15.27579499165932
STARLINK-6237           
1 57055U 23088H   26170.68577401  .00000231  00000+0  17933-4 0  9999
2 57055  43.0035 254.4534 0002143 309.4560  50.6102 15.27581138165932
STARLINK-6353           
1 57056U 23088J   26170.67678230  .00000293  00000+0  20166-4 0  9991
2 57056  43.0026 254.3866 0001116 273.9737  86.0987 15.27578722165939
STARLINK-6223           
1 57057U 23088K   26170.68320567  .00000706  00000+0  35172-4 0  9992
2 57057  43.0039 254.4091 0001535 281.4007  78.6672 15.27573951165931
STARLINK-6217           
1 57058U 23088L   26170.67292535  .00000380  00000+0  23341-4 0  9998
2 57058  43.0018 254.3598 0001279 274.8301  85.2404 15.27579837165934
STARLINK-6211           
1 57059U 23088M   26170.54344026 -.00000211  00000+0  18443-5 0  9990
2 57059  43.0023 255.0941 0001304 274.7804  85.2899 15.27577422165911
STARLINK-6227           
1 57060U 23088N   26170.53587516 -.00000024  00000+0  86564-5 0  9995
2 57060  43.0013 255.8910 0001227 270.1267  89.9444 15.27576905165904
STARLINK-5869           
1 57061U 23088P   26170.29683355  .00003382  00000+0  13239-3 0  9993
2 57061  43.0042 260.0900 0001971 273.2545  86.8082 15.27574463164857
STARLINK-5536           
1 57062U 23088Q   26170.25812940  .00000026  00000+0  10479-4 0  9990
2 57062  43.0045 242.5256 0001935 289.4602  70.6041 15.27580623166036
STARLINK-5832           
1 57063U 23088R   26170.50249084 -.00001989  00000+0 -62802-4 0  9990
2 57063  43.0042 255.6452 0002354 282.9017  77.1571 15.27558483165905
STARLINK-5822           
1 57064U 23088S   26170.68962951  .00000263  00000+0  19101-4 0  9991
2 57064  43.0035 254.4699 0002537 290.3751  69.6828 15.27581007164952
